{"fetched_at":"2026-07-19T07:05:34.422Z","source":"https://celestrak.org/NORAD/elements/gp.php?NAME=SENTINEL&FORMAT=JSON","constellation":"sentinel-2","records":[{"OBJECT_NAME":"SENTINEL-2A","OBJECT_ID":"2015-028A","EPOCH":"2026-07-18T19:45:15.496128","CLASSIFICATION_TYPE":"U","MEAN_MOTION":14.30815215,"ECCENTRICITY":0.0001305,"INCLINATION":98.5673,"RA_OF_ASC_NODE":274.2241,"ARG_OF_PERICENTER":95.7199,"MEAN_ANOMALY":264.4132,"EPHEMERIS_TYPE":0,"NORAD_CAT_ID":40697,"ELEMENT_SET_NO":999,"REV_AT_EPOCH":57825,"BSTAR":0.000057613,"MEAN_MOTION_DOT":0.00000107,"MEAN_MOTION_DDOT":0},{"OBJECT_NAME":"SENTINEL-2B","OBJECT_ID":"2017-013A","EPOCH":"2026-07-18T19:34:54.170400","CLASSIFICATION_TYPE":"U","MEAN_MOTION":14.30816138,"ECCENTRICITY":0.0001218,"INCLINATION":98.5681,"RA_OF_ASC_NODE":274.1425,"ARG_OF_PERICENTER":92.9836,"MEAN_ANOMALY":267.1486,"EPHEMERIS_TYPE":0,"NORAD_CAT_ID":42063,"ELEMENT_SET_NO":999,"REV_AT_EPOCH":48916,"BSTAR":0.000066313,"MEAN_MOTION_DOT":0.0000013,"MEAN_MOTION_DDOT":0},{"OBJECT_NAME":"SENTINEL-2C","OBJECT_ID":"2024-157A","EPOCH":"2026-07-18T18:44:34.478304","CLASSIFICATION_TYPE":"U","MEAN_MOTION":14.30816271,"ECCENTRICITY":0.0001022,"INCLINATION":98.5682,"RA_OF_ASC_NODE":274.1142,"ARG_OF_PERICENTER":105.5193,"MEAN_ANOMALY":254.6103,"EPHEMERIS_TYPE":0,"NORAD_CAT_ID":60989,"ELEMENT_SET_NO":999,"REV_AT_EPOCH":9750,"BSTAR":0.000030437,"MEAN_MOTION_DOT":3.6e-7,"MEAN_MOTION_DDOT":0}]}
